[{"OBJECT_NAME":"STARLINK-3749","OBJECT_ID":"2022-041BE","EPOCH":"2026-02-01T19:44:40.938720","MEAN_MOTION":15.08835657,"ECCENTRICITY":0.00013885,"INCLINATION":53.2165,"RA_OF_ASC_NODE":250.1364,"ARG_OF_PERICENTER":88.0984,"MEAN_ANOMALY":272.0167,"EPHEMERIS_TYPE":0,"CLASSIFICATION_TYPE":"U","NORAD_CAT_ID":52313,"ELEMENT_SET_NO":999,"REV_AT_EPOCH":21045,"BSTAR":9.1728966e-5,"MEAN_MOTION_DOT":1.172e-5,"MEAN_MOTION_DDOT":0},{"OBJECT_NAME":"STARLINK-3889","OBJECT_ID":"2022-045A","EPOCH":"2026-02-01T08:21:04.148352","MEAN_MOTION":15.08843283,"ECCENTRICITY":0.00015869,"INCLINATION":53.2189,"RA_OF_ASC_NODE":12.2647,"ARG_OF_PERICENTER":92.9865,"MEAN_ANOMALY":267.1308,"EPHEMERIS_TYPE":0,"CLASSIFICATION_TYPE":"U","NORAD_CAT_ID":52331,"ELEMENT_SET_NO":999,"REV_AT_EPOCH":21015,"BSTAR":8.2086442e-5,"MEAN_MOTION_DOT":1.019e-5,"MEAN_MOTION_DDOT":0},{"OBJECT_NAME":"STARLINK-3831","OBJECT_ID":"2022-045B","EPOCH":"2026-02-01T22:56:50.235072","MEAN_MOTION":15.08820527,"ECCENTRICITY":0.00013009,"INCLINATION":53.2193,"RA_OF_ASC_NODE":9.5452,"ARG_OF_PERICENTER":94.1262,"MEAN_ANOMALY":265.9879,"EPHEMERIS_TYPE":0,"CLASSIFICATION_TYPE":"U","NORAD_CAT_ID":52332,"ELEMENT_SET_NO":999,"REV_AT_EPOCH":21024,"BSTAR":0.00018449251,"MEAN_MOTION_DOT":2.648e-5,"MEAN_MOTION_DDOT":0},{"OBJECT_NAME":"STARLINK-3847","OBJECT_ID":"2022-045C","EPOCH":"2026-02-01T22:50:08.415456","MEAN_MOTION":15.08829803,"ECCENTRICITY":0.00013567,"INCLINATION":53.2197,"RA_OF_ASC_NODE":9.5497,"ARG_OF_PERICENTER":113.7744,"MEAN_ANOMALY":246.3391,"EPHEMERIS_TYPE":0,"CLASSIFICATION_TYPE":"U","NORAD_CAT_ID":52333,"ELEMENT_SET_NO":999,"REV_AT_EPOCH":21023,"BSTAR":-9.465178e-6,"MEAN_MOTION_DOT":-4.38e-6,"MEAN_MOTION_DDOT":0},{"OBJECT_NAME":"STARLINK-3880","OBJECT_ID":"2022-045D","EPOCH":"2026-02-01T22:34:14.751264","MEAN_MOTION":15.08836072,"ECCENTRICITY":0.0001424,"INCLINATION":53.2187,"RA_OF_ASC_NODE":9.6057,"ARG_OF_PERICENTER":84.5571,"MEAN_ANOMALY":275.5584,"EPHEMERIS_TYPE":0,"CLASSIFICATION_TYPE":"U","NORAD_CAT_ID":52334,"ELEMENT_SET_NO":999,"REV_AT_EPOCH":21023,"BSTAR":9.9482119e-5,"MEAN_MOTION_DOT":1.296e-5,"MEAN_MOTION_DDOT":0},{"OBJECT_NAME":"STARLINK-3814","OBJECT_ID":"2022-045E","EPOCH":"2026-02-01T16:07:24.235392","MEAN_MOTION":15.08841824,"ECCENTRICITY":0.00014661,"INCLINATION":53.2187,"RA_OF_ASC_NODE":10.8108,"ARG_OF_PERICENTER":87.7241,"MEAN_ANOMALY":272.3919,"EPHEMERIS_TYPE":0,"CLASSIFICATION_TYPE":"U","NORAD_CAT_ID":52335,"ELEMENT_SET_NO":999,"REV_AT_EPOCH":21020,"BSTAR":8.0131468e-5,"MEAN_MOTION_DOT":9.88e-6,"MEAN_MOTION_DDOT":0},{"OBJECT_NAME":"STARLINK-3823","OBJECT_ID":"2022-045F","EPOCH":"2026-02-01T21:51:49.392576","MEAN_MOTION":15.08836575,"ECCENTRICITY":0.00013083,"INCLINATION":53.2188,"RA_OF_ASC_NODE":9.5333,"ARG_OF_PERICENTER":91.6716,"MEAN_ANOMALY":268.4426,"EPHEMERIS_TYPE":0,"CLASSIFICATION_TYPE":"U","NORAD_CAT_ID":52336,"ELEMENT_SET_NO":999,"REV_AT_EPOCH":21024,"BSTAR":4.5860979e-5,"MEAN_MOTION_DOT":4.42e-6,"MEAN_MOTION_DDOT":0},{"OBJECT_NAME":"STARLINK-3797","OBJECT_ID":"2022-045G","EPOCH":"2026-02-01T22:44:50.790048","MEAN_MOTION":15.08843995,"ECCENTRICITY":0.00018374,"INCLINATION":53.2198,"RA_OF_ASC_NODE":9.5743,"ARG_OF_PERICENTER":87.2866,"MEAN_ANOMALY":272.8337,"EPHEMERIS_TYPE":0,"CLASSIFICATION_TYPE":"U","NORAD_CAT_ID":52337,"ELEMENT_SET_NO":999,"REV_AT_EPOCH":21024,"BSTAR":-0.00017216149,"MEAN_MOTION_DOT":-3.027e-5,"MEAN_MOTION_DDOT":0},{"OBJECT_NAME":"STARLINK-3792","OBJECT_ID":"2022-045J","EPOCH":"2026-02-01T22:55:23.149056","MEAN_MOTION":15.08837029,"ECCENTRICITY":0.00014682,"INCLINATION":53.22,"RA_OF_ASC_NODE":9.1826,"ARG_OF_PERICENTER":102.4381,"MEAN_ANOMALY":257.6775,"EPHEMERIS_TYPE":0,"CLASSIFICATION_TYPE":"U","NORAD_CAT_ID":52339,"ELEMENT_SET_NO":999,"REV_AT_EPOCH":21025,"BSTAR":-2.9439068e-5,"MEAN_MOTION_DOT":-7.56e-6,"MEAN_MOTION_DDOT":0},{"OBJECT_NAME":"STARLINK-3818","OBJECT_ID":"2022-045K","EPOCH":"2026-02-01T21:16:05.456928","MEAN_MOTION":15.08838443,"ECCENTRICITY":0.00015948,"INCLINATION":53.2194,"RA_OF_ASC_NODE":359.8471,"ARG_OF_PERICENTER":83.4649,"MEAN_ANOMALY":276.6525,"EPHEMERIS_TYPE":0,"CLASSIFICATION_TYPE":"U","NORAD_CAT_ID":52340,"ELEMENT_SET_NO":999,"REV_AT_EPOCH":21036,"BSTAR":4.7285491e-5,"MEAN_MOTION_DOT":4.65e-6,"MEAN_MOTION_DDOT":0},{"OBJECT_NAME":"STARLINK-3843","OBJECT_ID":"2022-045L","EPOCH":"2026-02-01T22:07:44.031360","MEAN_MOTION":15.08885206,"ECCENTRICITY":0.00017806,"INCLINATION":53.2212,"RA_OF_ASC_NODE":9.6364,"ARG_OF_PERICENTER":89.3303,"MEAN_ANOMALY":270.7893,"EPHEMERIS_TYPE":0,"CLASSIFICATION_TYPE":"U","NORAD_CAT_ID":52341,"ELEMENT_SET_NO":999,"REV_AT_EPOCH":21024,"BSTAR":-0.00087918307,"MEAN_MOTION_DOT":-0.00014271,"MEAN_MOTION_DDOT":0},{"OBJECT_NAME":"STARLINK-3850","OBJECT_ID":"2022-045M","EPOCH":"2026-02-01T21:21:24.283296","MEAN_MOTION":15.08840705,"ECCENTRICITY":0.00015287,"INCLINATION":53.2204,"RA_OF_ASC_NODE":359.9495,"ARG_OF_PERICENTER":100.7572,"MEAN_ANOMALY":259.3592,"EPHEMERIS_TYPE":0,"CLASSIFICATION_TYPE":"U","NORAD_CAT_ID":52342,"ELEMENT_SET_NO":999,"REV_AT_EPOCH":21037,"BSTAR":4.7206316e-5,"MEAN_MOTION_DOT":4.63e-6,"MEAN_MOTION_DDOT":0},{"OBJECT_NAME":"STARLINK-3849","OBJECT_ID":"2022-045N","EPOCH":"2026-02-01T23:00:44.766144","MEAN_MOTION":15.08834806,"ECCENTRICITY":0.0001626,"INCLINATION":53.2204,"RA_OF_ASC_NODE":9.5263,"ARG_OF_PERICENTER":103.3615,"MEAN_ANOMALY":256.7558,"EPHEMERIS_TYPE":0,"CLASSIFICATION_TYPE":"U","NORAD_CAT_ID":52343,"ELEMENT_SET_NO":999,"REV_AT_EPOCH":21025,"BSTAR":1.6683848e-5,"MEAN_MOTION_DOT":-2.3e-7,"MEAN_MOTION_DDOT":0},{"OBJECT_NAME":"STARLINK-3851","OBJECT_ID":"2022-045P","EPOCH":"2026-02-01T14:43:57.560160","MEAN_MOTION":15.08842322,"ECCENTRICITY":0.00026369,"INCLINATION":53.22,"RA_OF_ASC_NODE":1.1378,"ARG_OF_PERICENTER":93.6179,"MEAN_ANOMALY":266.5114,"EPHEMERIS_TYPE":0,"CLASSIFICATION_TYPE":"U","NORAD_CAT_ID":52344,"ELEMENT_SET_NO":999,"REV_AT_EPOCH":21033,"BSTAR":1.5303409e-5,"MEAN_MOTION_DOT":-4.5e-7,"MEAN_MOTION_DDOT":0},{"OBJECT_NAME":"STARLINK-3852","OBJECT_ID":"2022-045Q","EPOCH":"2026-02-01T07:25:30.816480","MEAN_MOTION":15.08848661,"ECCENTRICITY":0.00016174,"INCLINATION":53.2183,"RA_OF_ASC_NODE":2.6014,"ARG_OF_PERICENTER":82.9265,"MEAN_ANOMALY":277.1911,"EPHEMERIS_TYPE":0,"CLASSIFICATION_TYPE":"U","NORAD_CAT_ID":52345,"ELEMENT_SET_NO":999,"REV_AT_EPOCH":21027,"BSTAR":-0.00021201923,"MEAN_MOTION_DOT":-3.662e-5,"MEAN_MOTION_DDOT":0},{"OBJECT_NAME":"STARLINK-3812","OBJECT_ID":"2022-045R","EPOCH":"2026-02-01T22:31:39.294336","MEAN_MOTION":15.08840157,"ECCENTRICITY":0.0001841,"INCLINATION":53.2208,"RA_OF_ASC_NODE":359.6265,"ARG_OF_PERICENTER":99.4043,"MEAN_ANOMALY":260.7158,"EPHEMERIS_TYPE":0,"CLASSIFICATION_TYPE":"U","NORAD_CAT_ID":52346,"ELEMENT_SET_NO":999,"REV_AT_EPOCH":21038,"BSTAR":-7.12311e-7,"MEAN_MOTION_DOT":-2.99e-6,"MEAN_MOTION_DDOT":0},{"OBJECT_NAME":"STARLINK-3826","OBJECT_ID":"2022-045S","EPOCH":"2026-02-01T21:12:10.067904","MEAN_MOTION":15.08837764,"ECCENTRICITY":0.00014012,"INCLINATION":53.2192,"RA_OF_ASC_NODE":359.8725,"ARG_OF_PERICENTER":94.3426,"MEAN_ANOMALY":265.7726,"EPHEMERIS_TYPE":0,"CLASSIFICATION_TYPE":"U","NORAD_CAT_ID":52347,"ELEMENT_SET_NO":999,"REV_AT_EPOCH":21037,"BSTAR":9.1244443e-5,"MEAN_MOTION_DOT":1.164e-5,"MEAN_MOTION_DDOT":0},{"OBJECT_NAME":"STARLINK-3829","OBJECT_ID":"2022-045T","EPOCH":"2026-02-01T22:19:40.807488","MEAN_MOTION":15.08841189,"ECCENTRICITY":0.00021663,"INCLINATION":53.2196,"RA_OF_ASC_NODE":359.6526,"ARG_OF_PERICENTER":101.3588,"MEAN_ANOMALY":258.7648,"EPHEMERIS_TYPE":0,"CLASSIFICATION_TYPE":"U","NORAD_CAT_ID":52348,"ELEMENT_SET_NO":999,"REV_AT_EPOCH":21038,"BSTAR":-0.0001726997,"MEAN_MOTION_DOT":-3.036e-5,"MEAN_MOTION_DDOT":0},{"OBJECT_NAME":"STARLINK-3819","OBJECT_ID":"2022-045U","EPOCH":"2026-02-01T14:38:39.475104","MEAN_MOTION":15.08834416,"ECCENTRICITY":0.00015726,"INCLINATION":53.22,"RA_OF_ASC_NODE":1.09,"ARG_OF_PERICENTER":100.5024,"MEAN_ANOMALY":259.6146,"EPHEMERIS_TYPE":0,"CLASSIFICATION_TYPE":"U","NORAD_CAT_ID":52349,"ELEMENT_SET_NO":999,"REV_AT_EPOCH":21033,"BSTAR":0.00010578545,"MEAN_MOTION_DOT":1.396e-5,"MEAN_MOTION_DDOT":0},{"OBJECT_NAME":"STARLINK-3754","OBJECT_ID":"2022-045V","EPOCH":"2026-02-01T22:14:22.982496","MEAN_MOTION":15.08835102,"ECCENTRICITY":0.0001429,"INCLINATION":53.2197,"RA_OF_ASC_NODE":359.6669,"ARG_OF_PERICENTER":91.5348,"MEAN_ANOMALY":268.5808,"EPHEMERIS_TYPE":0,"CLASSIFICATION_TYPE":"U","NORAD_CAT_ID":52350,"ELEMENT_SET_NO":999,"REV_AT_EPOCH":21038,"BSTAR":-5.952453e-5,"MEAN_MOTION_DOT":-1.235e-5,"MEAN_MOTION_DDOT":0},{"OBJECT_NAME":"STARLINK-3838","OBJECT_ID":"2022-045X","EPOCH":"2026-02-01T21:58:28.799040","MEAN_MOTION":15.08834947,"ECCENTRICITY":0.00014873,"INCLINATION":53.2166,"RA_OF_ASC_NODE":359.7151,"ARG_OF_PERICENTER":94.8297,"MEAN_ANOMALY":265.2865,"EPHEMERIS_TYPE":0,"CLASSIFICATION_TYPE":"U","NORAD_CAT_ID":52352,"ELEMENT_SET_NO":999,"REV_AT_EPOCH":21038,"BSTAR":0.00017229068,"MEAN_MOTION_DOT":2.455e-5,"MEAN_MOTION_DDOT":0},{"OBJECT_NAME":"STARLINK-3807","OBJECT_ID":"2022-045Y","EPOCH":"2026-02-01T22:09:04.372992","MEAN_MOTION":15.08839552,"ECCENTRICITY":0.00014262,"INCLINATION":53.2195,"RA_OF_ASC_NODE":359.6846,"ARG_OF_PERICENTER":92.1149,"MEAN_ANOMALY":268.0006,"EPHEMERIS_TYPE":0,"CLASSIFICATION_TYPE":"U","NORAD_CAT_ID":52353,"ELEMENT_SET_NO":999,"REV_AT_EPOCH":21038,"BSTAR":1.661809e-5,"MEAN_MOTION_DOT":-2.3e-7,"MEAN_MOTION_DDOT":0},{"OBJECT_NAME":"STARLINK-3877","OBJECT_ID":"2022-045AA","EPOCH":"2026-02-01T22:03:46.662048","MEAN_MOTION":15.08845351,"ECCENTRICITY":0.00015599,"INCLINATION":53.2192,"RA_OF_ASC_NODE":359.7036,"ARG_OF_PERICENTER":76.4672,"MEAN_ANOMALY":283.6494,"EPHEMERIS_TYPE":0,"CLASSIFICATION_TYPE":"U","NORAD_CAT_ID":52355,"ELEMENT_SET_NO":999,"REV_AT_EPOCH":21038,"BSTAR":0.00012250202,"MEAN_MOTION_DOT":1.662e-5,"MEAN_MOTION_DDOT":0}]
